start=new Date('2021-09-05T00:00:00.000Z').valueOf();
sats=[{"COUNTRY_CODE":"US","EPHEMERIS_TYPE":"0","OBJECT_NAME":"STARLINK-1554","SEMIMAJOR_AXIS":"6925.363","MEAN_ANOMALY":"257.0019","NORAD_CAT_ID":"46055","INCLINATION":"53.0552","SITE":"AFETR","OBJECT_TYPE":"PAYLOAD","APOAPSIS":"547.876","PERIOD":"95.592","CLASSIFICATION_TYPE":"U","RCS_SIZE":"LARGE","DECAY_DATE":null,"BSTAR":"-0.00000810680000","MEAN_ELEMENT_THEORY":"SGP4","REV_AT_EPOCH":"6079","TLE_LINE2":"2 46055  53.0552 310.3126 0000936 103.1075 257.0019 15.06395446 60792","RA_OF_ASC_NODE":"310.3126","PERIAPSIS":"546.579","LAUNCH_DATE":"2020-08-07","ECCENTRICITY":"0.00009360","MEAN_MOTION_DOT":"-0.00000402","ARG_OF_PERICENTER":"103.1075","CENTER_NAME":"EARTH","REF_FRAME":"TEME","TIME_SYSTEM":"UTC","ELEMENT_SET_NO":"999","TLE_LINE1":"1 46055U 20055AE  21247.68629364 -.00000402  00000-0 -81068-5 0  9998","GP_ID":"184103012","MEAN_MOTION_DDOT":"0.0000000000000","FILE":"3108751","EPOCH":"2021-09-04T16:28:15.770496","MEAN_MOTION":"15.06395446","OBJECT_ID":"2020-055AE"},{"ECCENTRICITY":"0.00011170","MEAN_MOTION_DOT":"-0.00000935","LAUNCH_DATE":"2020-08-07","PERIAPSIS":"546.468","REV_AT_EPOCH":"6079","MEAN_ELEMENT_THEORY":"SGP4","TLE_LINE2":"2 46056  53.0543 310.5051 0001117 111.1280 248.9829 15.06390733 60793","RA_OF_ASC_NODE":"310.5051","BSTAR":"-0.00004388200000","TIME_SYSTEM":"UTC","REF_FRAME":"TEME","ARG_OF_PERICENTER":"111.1280","CENTER_NAME":"EARTH","GP_ID":"184103262","MEAN_MOTION_DDOT":"0.0000000000000","TLE_LINE1":"1 46056U 20055AF  21247.64204561 -.00000935  00000-0 -43882-4 0  9995","ELEMENT_SET_NO":"999","MEAN_MOTION":"15.06390733","EPOCH":"2021-09-04T15:24:32.740704","OBJECT_ID":"2020-055AF","FILE":"3108751","MEAN_ANOMALY":"248.9829","OBJECT_NAME":"STARLINK-1561","SEMIMAJOR_AXIS":"6925.377","EPHEMERIS_TYPE":"0","COUNTRY_CODE":"US","NORAD_CAT_ID":"46056","OBJECT_TYPE":"PAYLOAD","INCLINATION":"53.0543","SITE":"AFETR","CLASSIFICATION_TYPE":"U","RCS_SIZE":"LARGE","DECAY_DATE":null,"APOAPSIS":"548.016","PERIOD":"95.593"},{"CENTER_NAME":"EARTH","ARG_OF_PERICENTER":"143.2471","REF_FRAME":"TEME","TIME_SYSTEM":"UTC","BSTAR":"-0.00003982900000","TLE_LINE2":"2 46058  53.0547 310.7461 0001026 143.2471 216.8589 15.06405180 60771","RA_OF_ASC_NODE":"310.7461","REV_AT_EPOCH":"6077","MEAN_ELEMENT_THEORY":"SGP4","PERIAPSIS":"546.487","LAUNCH_DATE":"2020-08-07","ECCENTRICITY":"0.00010260","MEAN_MOTION_DOT":"-0.00000875","FILE":"3108751","OBJECT_ID":"2020-055AH","EPOCH":"2021-09-04T14:04:56.641152","MEAN_MOTION":"15.06405180","ELEMENT_SET_NO":"999","TLE_LINE1":"1 46058U 20055AH  21247.58676668 -.00000875  00000-0 -39829-4 0  9990","MEAN_MOTION_DDOT":"0.0000000000000","GP_ID":"184103514","NORAD_CAT_ID":"46058","COUNTRY_CODE":"US","EPHEMERIS_TYPE":"0","SEMIMAJOR_AXIS":"6925.333","OBJECT_NAME":"STARLINK-1564","MEAN_ANOMALY":"216.8589","PERIOD":"95.592","APOAPSIS":"547.908","DECAY_DATE":null,"RCS_SIZE":"LARGE","CLASSIFICATION_TYPE":"U","SITE":"AFETR","INCLINATION":"53.0547","OBJECT_TYPE":"PAYLOAD"},{"MEAN_ANOMALY":"256.1443","COUNTRY_CODE":"US","EPHEMERIS_TYPE":"0","SEMIMAJOR_AXIS":"6925.353","OBJECT_NAME":"STARLINK-1570","NORAD_CAT_ID":"46059","OBJECT_TYPE":"PAYLOAD","SITE":"AFETR","INCLINATION":"53.0538","PERIOD":"95.592","APOAPSIS":"547.802","DECAY_DATE":null,"RCS_SIZE":"LARGE","CLASSIFICATION_TYPE":"U","LAUNCH_DATE":"2020-08-07","PERIAPSIS":"546.633","MEAN_MOTION_DOT":"-0.00000004","ECCENTRICITY":"0.00008440","BSTAR":"0.00001860600000","RA_OF_ASC_NODE":"310.4336","TLE_LINE2":"2 46059  53.0538 310.4336 0000844 103.9640 256.1443 15.06398570 60745","REV_AT_EPOCH":"6074","MEAN_ELEMENT_THEORY":"SGP4","TIME_SYSTEM":"UTC","CENTER_NAME":"EARTH","ARG_OF_PERICENTER":"103.9640","REF_FRAME":"TEME","TLE_LINE1":"1 46059U 20055AJ  21247.66048400 -.00000004  00000-0  18606-4 0  9990","GP_ID":"184104264","MEAN_MOTION_DDOT":"0.0000000000000","ELEMENT_SET_NO":"999","FILE":"3108751","OBJECT_ID":"2020-055AJ","EPOCH":"2021-09-04T15:51:05.817600","MEAN_MOTION":"15.06398570"},{"EPHEMERIS_TYPE":"0","COUNTRY_CODE":"US","OBJECT_NAME":"STARLINK-1572","SEMIMAJOR_AXIS":"6925.327","MEAN_ANOMALY":"249.4749","NORAD_CAT_ID":"46060","INCLINATION":"53.0550","SITE":"AFETR","OBJECT_TYPE":"PAYLOAD","APOAPSIS":"547.897","PERIOD":"95.592","CLASSIFICATION_TYPE":"U","DECAY_DATE":null,"RCS_SIZE":"LARGE","BSTAR":"0.00010634000000","REV_AT_EPOCH":"6073","MEAN_ELEMENT_THEORY":"SGP4","RA_OF_ASC_NODE":"311.0328","TLE_LINE2":"2 46060  53.0550 311.0328 0001018 110.6349 249.4749 15.06407093 60738","PERIAPSIS":"546.487","LAUNCH_DATE":"2020-08-07","MEAN_MOTION_DOT":"0.00001303","ECCENTRICITY":"0.00010180","ARG_OF_PERICENTER":"110.6349","CENTER_NAME":"EARTH","REF_FRAME":"TEME","TIME_SYSTEM":"UTC","ELEMENT_SET_NO":"999","TLE_LINE1":"1 46060U 20055AK  21247.52410371  .00001303  00000-0  10634-3 0  9991","MEAN_MOTION_DDOT":"0.0000000000000","GP_ID":"184077062","FILE":"3108585","MEAN_MOTION":"15.06407093","EPOCH":"2021-09-04T12:34:42.560544","OBJECT_ID":"2020-055AK"},{"MEAN_MOTION":"15.06407899","EPOCH":"2021-09-04T15:35:09.891456","OBJECT_ID":"2020-055AL","FILE":"3108751","GP_ID":"184102763","MEAN_MOTION_DDOT":"0.0000000000000","TLE_LINE1":"1 46061U 20055AL  21247.64942004  .00001095  00000-0  92388-4 0  9993","ELEMENT_SET_NO":"999","TIME_SYSTEM":"UTC","REF_FRAME":"TEME","ARG_OF_PERICENTER":"114.2408","CENTER_NAME":"EARTH","MEAN_MOTION_DOT":"0.00001095","ECCENTRICITY":"0.00007940","LAUNCH_DATE":"2020-08-07","PERIAPSIS":"546.639","REV_AT_EPOCH":"6078","MEAN_ELEMENT_THEORY":"SGP4","RA_OF_ASC_NODE":"310.4620","TLE_LINE2":"2 46061  53.0545 310.4620 0000794 114.2408 245.8664 15.06407899 60782","BSTAR":"0.00009238800000","CLASSIFICATION_TYPE":"U","RCS_SIZE":"LARGE","DECAY_DATE":null,"APOAPSIS":"547.739","PERIOD":"95.592","OBJECT_TYPE":"PAYLOAD","INCLINATION":"53.0545","SITE":"AFETR","NORAD_CAT_ID":"46061","MEAN_ANOMALY":"245.8664","OBJECT_NAME":"STARLINK-1573","SEMIMAJOR_AXIS":"6925.324","EPHEMERIS_TYPE":"0","COUNTRY_CODE":"US"},{"TIME_SYSTEM":"UTC","ARG_OF_PERICENTER":"109.3990","CENTER_NAME":"EARTH","REF_FRAME":"TEME","LAUNCH_DATE":"2020-08-07","PERIAPSIS":"546.407","MEAN_MOTION_DOT":"-0.00001632","ECCENTRICITY":"0.00011550","BSTAR":"-0.00009071600000","MEAN_ELEMENT_THEORY":"SGP4","REV_AT_EPOCH":"6075","TLE_LINE2":"2 46062  53.0555 310.3266 0001155 109.3990 250.7124 15.06402158 60758","RA_OF_ASC_NODE":"310.3266","FILE":"3108751","MEAN_MOTION":"15.06402158","EPOCH":"2021-09-04T16:22:56.845632","OBJECT_ID":"2020-055AM","TLE_LINE1":"1 46062U 20055AM  21247.68260238 -.00001632  00000-0 -90716-4 0  9992","GP_ID":"184104014","MEAN_MOTION_DDOT":"0.0000000000000","ELEMENT_SET_NO":"999","NORAD_CAT_ID":"46062","MEAN_ANOMALY":"250.7124","EPHEMERIS_TYPE":"0","COUNTRY_CODE":"US","OBJECT_NAME":"STARLINK-1574","SEMIMAJOR_AXIS":"6925.342","APOAPSIS":"548.007","PERIOD":"95.592","CLASSIFICATION_TYPE":"U","DECAY_DATE":null,"RCS_SIZE":"LARGE","OBJECT_TYPE":"PAYLOAD","INCLINATION":"53.0555","SITE":"AFETR"},{"OBJECT_NAME":"STARLINK-1577","SEMIMAJOR_AXIS":"6925.377","COUNTRY_CODE":"US","EPHEMERIS_TYPE":"0","MEAN_ANOMALY":"268.8184","NORAD_CAT_ID":"46063","INCLINATION":"53.0552","SITE":"AFETR","OBJECT_TYPE":"PAYLOAD","CLASSIFICATION_TYPE":"U","DECAY_DATE":null,"RCS_SIZE":"LARGE","APOAPSIS":"547.931","PERIOD":"95.593","REV_AT_EPOCH":"6078","MEAN_ELEMENT_THEORY":"SGP4","TLE_LINE2":"2 46063  53.0552 310.3414 0000994  91.2919 268.8184 15.06390601 60789","RA_OF_ASC_NODE":"310.3414","BSTAR":"0.00008652300000","MEAN_MOTION_DOT":"0.00001007","ECCENTRICITY":"0.00009940","PERIAPSIS":"546.554","LAUNCH_DATE":"2020-08-07","REF_FRAME":"TEME","ARG_OF_PERICENTER":"91.2919","CENTER_NAME":"EARTH","TIME_SYSTEM":"UTC","ELEMENT_SET_NO":"999","MEAN_MOTION_DDOT":"0.0000000000000","GP_ID":"184103765","TLE_LINE1":"1 46063U 20055AN  21247.67891691  .00001007  00000-0  86523-4 0  9990","MEAN_MOTION":"15.06390601","EPOCH":"2021-09-04T16:17:38.421024","OBJECT_ID":"2020-055AN","FILE":"3108751"},{"OBJECT_ID":"2020-055AP","MEAN_MOTION":"15.06409483","EPOCH":"2021-09-04T15:29:52.332576","FILE":"3108751","ELEMENT_SET_NO":"999","MEAN_MOTION_DDOT":"0.0000000000000","GP_ID":"184103013","TLE_LINE1":"1 46064U 20055AP  21247.64574459 -.00000052  00000-0  15407-4 0  9991","REF_FRAME":"TEME","CENTER_NAME":"EARTH","ARG_OF_PERICENTER":"111.3674","TIME_SYSTEM":"UTC","TLE_LINE2":"2 46064  53.0540 310.4851 0001111 111.3674 248.7433 15.06409483 60780","RA_OF_ASC_NODE":"310.4851","REV_AT_EPOCH":"6078","MEAN_ELEMENT_THEORY":"SGP4","BSTAR":"0.00001540700000","ECCENTRICITY":"0.00011110","MEAN_MOTION_DOT":"-0.00000052","PERIAPSIS":"546.415","LAUNCH_DATE":"2020-08-07","RCS_SIZE":"LARGE","DECAY_DATE":null,"CLASSIFICATION_TYPE":"U","PERIOD":"95.592","APOAPSIS":"547.954","SITE":"AFETR","INCLINATION":"53.0540","OBJECT_TYPE":"PAYLOAD","NORAD_CAT_ID":"46064","SEMIMAJOR_AXIS":"6925.319","OBJECT_NAME":"STARLINK-1583","EPHEMERIS_TYPE":"0","COUNTRY_CODE":"US","MEAN_ANOMALY":"248.7433"},{"NORAD_CAT_ID":"46065","MEAN_ANOMALY":"280.2210","OBJECT_NAME":"STARLINK-1515","SEMIMAJOR_AXIS":"6925.370","EPHEMERIS_TYPE":"0","COUNTRY_CODE":"US","CLASSIFICATION_TYPE":"U","DECAY_DATE":null,"RCS_SIZE":"LARGE","APOAPSIS":"547.440","PERIOD":"95.593","OBJECT_TYPE":"PAYLOAD","INCLINATION":"53.0547","SITE":"AFETR","TIME_SYSTEM":"UTC","REF_FRAME":"TEME","ARG_OF_PERICENTER":"79.8812","CENTER_NAME":"EARTH","MEAN_MOTION_DOT":"-0.00000977","ECCENTRICITY":"0.00002960","PERIAPSIS":"547.030","LAUNCH_DATE":"2020-08-07","REV_AT_EPOCH":"6102","MEAN_ELEMENT_THEORY":"SGP4","RA_OF_ASC_NODE":"291.1475","TLE_LINE2":"2 46065  53.0547 291.1475 0000296  79.8812 280.2210 15.06392939 61029","BSTAR":"-0.00004671700000","MEAN_MOTION":"15.06392939","EPOCH":"2021-09-04T12:09:28.225152","OBJECT_ID":"2020-055AQ","FILE":"3108585","MEAN_MOTION_DDOT":"0.0000000000000","GP_ID":"184076811","TLE_LINE1":"1 46065U 20055AQ  21247.50657668 -.00000977  00000-0 -46717-4 0  9996","ELEMENT_SET_NO":"999"}];
